SPINLAUNCH_L_00001961-01
1 10960U 25267BL  26075.69978009  .00000000  00000+0  00000-0 0  9995
2 10960  55.0000 290.4202 0000000   0.0000  81.6807 14.18626974    16
SPINLAUNCH_L_00001962-01
1 10961U 25579WM  26075.69978009  .00000000  00000+0  00000-0 0  9992
2 10961  55.0000 290.7227 0000000   0.0000  82.8908 14.18626974    12
SPINLAUNCH_L_00001963-01
1 10962U 26062NP  26075.69978009  .00000000  00000+0  00000-0 0  9991
2 10962  55.0000 291.0252 0000000   0.0000  84.1008 14.18626974    11
SPINLAUNCH_L_00001964-01
1 10963U 22857KQ  26075.69978009  .00000000  00000+0  00000-0 0  9990
2 10963  55.0000 291.3277 0000000   0.0000  85.3109 14.18626974    17
SPINLAUNCH_L_00001965-01
1 10964U 26548SO  26075.69978009  .00000000  00000+0  00000-0 0  9992
2 10964  55.0000 291.6303 0000000   0.0000  86.5210 14.18626974    17
SPINLAUNCH_L_00001966-01
1 10965U 22182MI  26075.69978009  .00000000  00000+0  00000-0 0  9993
2 10965  55.0000 291.9328 0000000   0.0000  87.7311 14.18626974    13
SPINLAUNCH_L_00001967-01
1 10966U 23794VO  26075.69978009  .00000000  00000+0  00000-0 0  9994
2 10966  55.0000 292.2353 0000000   0.0000  88.9412 14.18626974    11
SPINLAUNCH_L_00001968-01
1 10967U 26983QI  26075.69978009  .00000000  00000+0  00000-0 0  9998
2 10967  55.0000 292.5378 0000000   0.0000  90.1513 14.18626974    19
SPINLAUNCH_L_00001969-01
1 10968U 24874VL  26075.69978009  .00000000  00000+0  00000-0 0  9996
2 10968  55.0000 292.8403 0000000   0.0000  91.3613 14.18626974    16
SPINLAUNCH_L_00001970-01
1 10969U 22719KY  26075.69978009  .00000000  00000+0  00000-0 0  9993
2 10969  55.0000 293.1429 0000000   0.0000  92.5714 14.18626974    14
SPINLAUNCH_L_00001971-01
1 10970U 24623DL  26075.69978009  .00000000  00000+0  00000-0 0  9991
2 10970  55.0000 293.4454 0000000   0.0000  93.7815 14.18626974    12
SPINLAUNCH_L_00001972-01
1 10971U 22952QN  26075.69978009  .00000000  00000+0  00000-0 0  9995
2 10971  55.0000 293.7479 0000000   0.0000  94.9916 14.18626974    18
SPINLAUNCH_L_00001973-01
1 10972U 24401XA  26075.69978009  .00000000  00000+0  00000-0 0  9997
2 10972  55.0000 294.0504 0000000   0.0000  96.2017 14.18626974    19
SPINLAUNCH_L_00001974-01
1 10973U 22173SX  26075.69978009  .00000000  00000+0  00000-0 0  9992
2 10973  55.0000 294.3529 0000000   0.0000  97.4118 14.18626974    15
SPINLAUNCH_L_00001975-01
1 10974U 23497FV  26075.69978009  .00000000  00000+0  00000-0 0  9993
2 10974  55.0000 294.6555 0000000   0.0000  98.6218 14.18626974    12
SPINLAUNCH_L_00001976-01
1 10975U 25912YI  26075.69978009  .00000000  00000+0  00000-0 0  9998
2 10975  55.0000 294.9580 0000000   0.0000  99.8319 14.18626974    19
SPINLAUNCH_L_00001977-01
1 10976U 23450JU  26075.69978009  .00000000  00000+0  00000-0 0  9994
2 10976  55.0000 295.2605 0000000   0.0000 101.0420 14.18626974    11
SPINLAUNCH_L_00001978-01
1 10977U 26786VI  26075.69978009  .00000000  00000+0  00000-0 0  9990
2 10977  55.0000 295.5630 0000000   0.0000 102.2521 14.18626974    18
SPINLAUNCH_L_00001979-01
1 10978U 22693GM  26075.69978009  .00000000  00000+0  00000-0 0  9994
2 10978  55.0000 295.8655 0000000   0.0000 103.4622 14.18626974    14
SPINLAUNCH_L_00001980-01
1 10979U 23339YI  26075.69978009  .00000000  00000+0  00000-0 0  9993
2 10979  55.0000 296.1681 0000000   0.0000 104.6723 14.18626974    13
SPINLAUNCH_L_00001981-01
1 10980U 26404SD  26075.69978009  .00000000  00000+0  00000-0 0  9991
2 10980  55.0000 296.4706 0000000   0.0000 105.8824 14.18626974    11
SPINLAUNCH_L_00001982-01
1 10981U 24534YC  26075.69978009  .00000000  00000+0  00000-0 0  9994
2 10981  55.0000 296.7731 0000000   0.0000 107.0924 14.18626974    18
SPINLAUNCH_L_00001983-01
1 10982U 26154AK  26075.69978009  .00000000  00000+0  00000-0 0  9995
2 10982  55.0000 297.0756 0000000   0.0000 108.3025 14.18626974    16
SPINLAUNCH_L_00001984-01
1 10983U 25610XY  26075.69978009  .00000000  00000+0  00000-0 0  9992
2 10983  55.0000 297.3782 0000000   0.0000 109.5126 14.18626974    14
SPINLAUNCH_L_00001985-01
1 10984U 26998TD  26075.69978009  .00000000  00000+0  00000-0 0  9993
2 10984  55.0000 297.6807 0000000   0.0000 110.7227 14.18626974    12
SPINLAUNCH_L_00001986-01
1 10985U 25292RE  26075.69978009  .00000000  00000+0  00000-0 0  9990
2 10985  55.0000 297.9832 0000000   0.0000 111.9328 14.18626974    19
SPINLAUNCH_L_00001987-01
1 10986U 25101LT  26075.69978009  .00000000  00000+0  00000-0 0  9990
2 10986  55.0000 298.2857 0000000   0.0000 113.1429 14.18626974    17
SPINLAUNCH_L_00001988-01
1 10987U 22953J   26075.69978009  .00000000  00000+0  00000-0 0  9993
2 10987  55.0000 298.5882 0000000   0.0000 114.3529 14.18626974    13
SPINLAUNCH_L_00001989-01
1 10988U 25818WC  26075.69978009  .00000000  00000+0  00000-0 0  9997
2 10988  55.0000 298.8908 0000000   0.0000 115.5630 14.18626974    12
SPINLAUNCH_L_00001990-01
1 10989U 26347VB  26075.69978009  .00000000  00000+0  00000-0 0  9996
2 10989  55.0000 299.1933 0000000   0.0000 116.7731 14.18626974    10
SPINLAUNCH_L_00001991-01
1 10990U 24877JW  26075.69978009  .00000000  00000+0  00000-0 0  9994
2 10990  55.0000 299.4958 0000000   0.0000 117.9832 14.18626974    17
SPINLAUNCH_L_00001992-01
1 10991U 24871MR  26075.69978009  .00000000  00000+0  00000-0 0  9999
2 10991  55.0000 299.7983 0000000   0.0000 119.1933 14.18626974    15
SPINLAUNCH_L_00001993-01
1 10992U 24116NI  26075.69978009  .00000000  00000+0  00000-0 0  9992
2 10992  55.0000 300.1008 0000000   0.0000 120.4034 14.18626974    18
SPINLAUNCH_L_00001994-01
1 10993U 23332KB  26075.69978009  .00000000  00000+0  00000-0 0  9992
2 10993  55.0000 300.4034 0000000   0.0000 121.6134 14.18626974    15
SPINLAUNCH_L_00001995-01
1 10994U 22455DS  26075.69978009  .00000000  00000+0  00000-0 0  9998
2 10994  55.0000 300.7059 0000000   0.0000 122.8235 14.18626974    11
SPINLAUNCH_L_00001996-01
1 10995U 25118EB  26075.69978009  .00000000  00000+0  00000-0 0  9998
2 10995  55.0000 301.0084 0000000   0.0000 124.0336 14.18626974    10
SPINLAUNCH_L_00001997-01
1 10996U 25080I   26075.69978009  .00000000  00000+0  00000-0 0  9997
2 10996  55.0000 301.3109 0000000   0.0000 125.2437 14.18626974    17
SPINLAUNCH_L_00001998-01
1 10997U 24663RT  26075.69978009  .00000000  00000+0  00000-0 0  9994
2 10997  55.0000 301.6134 0000000   0.0000 126.4538 14.18626974    14
SPINLAUNCH_L_00001999-01
1 10998U 26575SJ  26075.69978009  .00000000  00000+0  00000-0 0  9999
2 10998  55.0000 301.9160 0000000   0.0000 127.6639 14.18626974    12
SPINLAUNCH_L_000011000-01
1 10999U 25866LU  26075.69978009  .00000000  00000+0  00000-0 0  9992
2 10999  55.0000 302.2185 0000000   0.0000 128.8739 14.18626974    18
SPINLAUNCH_L_000011001-01
1 11000U 23101BS  26075.69978009  .00000000  00000+0  00000-0 0  9996
2 11000  55.0000 302.5210 0000000   0.0000 130.0840 14.18626974    12
SPINLAUNCH_L_000011002-01
1 11001U 23441QF  26075.69978009  .00000000  00000+0  00000-0 0  9994
2 11001  55.0000 302.8235 0000000   0.0000 131.2941 14.18626974    18
SPINLAUNCH_L_000011003-01
1 11002U 23681SJ  26075.69978009  .00000000  00000+0  00000-0 0  9991
2 11002  55.0000 303.1261 0000000   0.0000 132.5042 14.18626974    18
SPINLAUNCH_L_000011004-01
1 11003U 26168AW  26075.69978009  .00000000  00000+0  00000-0 0  9995
2 11003  55.0000 303.4286 0000000   0.0000 133.7143 14.18626974    14
SPINLAUNCH_L_000011005-01
1 11004U 25393BI  26075.69978009  .00000000  00000+0  00000-0 0  9995
2 11004  55.0000 303.7311 0000000   0.0000 134.9244 14.18626974    12
SPINLAUNCH_L_000011006-01
1 11005U 22749ZP  26075.69978009  .00000000  00000+0  00000-0 0  9998
2 11005  55.0000 304.0336 0000000   0.0000 136.1345 14.18626974    10
SPINLAUNCH_L_000011007-01
1 11006U 26326X   26075.69978009  .00000000  00000+0  00000-0 0  9994
2 11006  55.0000 304.3361 0000000   0.0000 137.3445 14.18626974    16
SPINLAUNCH_L_000011008-01
1 11007U 23089HI  26075.69978009  .00000000  00000+0  00000-0 0  9998
2 11007  55.0000 304.6387 0000000   0.0000 138.5546 14.18626974    13
SPINLAUNCH_L_000011009-01
1 11008U 24914DZ  26075.69978009  .00000000  00000+0  00000-0 0  9997
2 11008  55.0000 304.9412 0000000   0.0000 139.7647 14.18626974    11
SPINLAUNCH_L_000011010-01
1 11009U 24370ER  26075.69978009  .00000000  00000+0  00000-0 0  9994
2 11009  55.0000 305.2437 0000000   0.0000 140.9748 14.18626974    19
SPINLAUNCH_L_000011011-01
1 11010U 24129UV  26075.69978009  .00000000  00000+0  00000-0 0  9998
2 11010  55.0000 305.5462 0000000   0.0000 142.1849 14.18626974    18
SPINLAUNCH_L_000011012-01
1 11011U 25654RX  26075.69978009  .00000000  00000+0  00000-0 0  9993
2 11011  55.0000 305.8487 0000000   0.0000 143.3950 14.18626974    15
SPINLAUNCH_L_000011013-01
1 11012U 26178DV  26075.69978009  .00000000  00000+0  00000-0 0  9996
2 11012  55.0000 306.1513 0000000   0.0000 144.6050 14.18626974    15
SPINLAUNCH_L_000011014-01
1 11013U 24497RW  26075.69978009  .00000000  00000+0  00000-0 0  9999
2 11013  55.0000 306.4538 0000000   0.0000 145.8151 14.18626974    11
SPINLAUNCH_L_000011015-01
1 11014U 25304DK  26075.69978009  .00000000  00000+0  00000-0 0  9998
2 11014  55.0000 306.7563 0000000   0.0000 147.0252 14.18626974    19
SPINLAUNCH_L_000011016-01
1 11015U 25600FB  26075.69978009  .00000000  00000+0  00000-0 0  9998
2 11015  55.0000 307.0588 0000000   0.0000 148.2353 14.18626974    16
SPINLAUNCH_L_000011017-01
1 11016U 24827PG  26075.69978009  .00000000  00000+0  00000-0 0  9999
2 11016  55.0000 307.3613 0000000   0.0000 149.4454 14.18626974    14
SPINLAUNCH_L_000011018-01
1 11017U 26678FW  26075.69978009  .00000000  00000+0  00000-0 0  9996
2 11017  55.0000 307.6639 0000000   0.0000 150.6555 14.18626974    12
SPINLAUNCH_L_000011019-01
1 11018U 23126SW  26075.69978009  .00000000  00000+0  00000-0 0  9992
2 11018  55.0000 307.9664 0000000   0.0000 151.8655 14.18626974    18
SPINLAUNCH_L_000011020-01
1 11019U 26561HO  26075.69978009  .00000000  00000+0  00000-0 0  9999
2 11019  55.0000 308.2689 0000000   0.0000 153.0756 14.18626974    16
